C/2018 Y1 (Iwamoto),e,160.4031,147.4958,358.0522,144.3382,0.0005684,0.99108659,0.0000,02/07.0341/2019,2000,g 11.5,4.0
# From MPC114605
P/2018 Y2 (Africano),e,11.6825,297.2660,162.4448,7.469812,0.0482769,0.47887682,20.0713,02/22.0/2020,2000,g 11.5,4.0
# From MPC114605
P/2019 A1 (PANSTARRS),e,13.7442,312.3008,150.8319,5.126552,0.0849114,0.56856487,42.3755,02/22.0/2020,2000,g 16.0,4.0
# From MPC114605
P/2019 A2 (ATLAS),e,14.8591,139.4625,324.1740,5.728003,0.0718951,0.38155812,32.9193,02/22.0/2020,2000,g 10.5,4.0
# From MPC114605
P/2019 A3 (PANSTARRS),e,15.3647,31.3211,325.4798,3.147547,0.1765004,0.26519974,100.4482,02/22.0/2020,2000,g 16.0,4.0
# From MPC114605
P/2019 A4 (PANSTARRS),e,13.3206,119.3006,341.6083,2.612738,0.2333782,0.08934403,103.7678,02/22.0/2020,2000,g 15.0,4.0
# From MPC118842
C/2019 A5 (PANSTARRS),e,67.5474,146.6205,356.0252,21.63053,0.0097972,0.70763497,2.5251,02/22.0/2020,2000,g  9.5,4.0
# From MPC114605
P/2019 A6 (Lemmon-PANSTARRS),e,33.2292,280.2738,156.2631,5.367223,0.0792647,0.63894047,42.9451,02/22.0/2020,2000,g 16.0,4.0
# From MPC114605
P/2019 A7 (PANSTARRS),e,17.7743,280.5243,119.3557,3.186572,0.1732681,0.16086953,134.3852,02/22.0/2020,2000,g 13.5,4.0
# From MPC115884
P/2019 A8 (PANSTARRS),e,2.9764,127.8069,21.7800,3.363750,0.1597602,0.44093652,85.7404,02/22.0/2020,2000,g 16.0,4.0
# From MPC118842
C/2019 A9 (PANSTARRS),e,84.3420,278.3682,237.8204,38.93346,0.0040571,0.96335578,0.8538,02/22.0/2020,2000,g 15.0,4.0
# From MPC114606
C/2019 B1 (Africano),e,123.3634,290.4353,174.8704,151.1062,0.0005306,0.98943129,0.0000,03/19.8986/2019,2000,g 16.0,4.0
# From MPC115885
P/2019 B2 (Groeller),e,16.8273,176.4508,358.7731,3.854019,0.1302667,0.37292137,33.7117,02/22.0/2020,2000,g 14.5,4.0
# From MPC115885
C/2019 B3 (PANSTARRS),h,01/19.5853/2021,66.5343,358.4166,263.8781,1.002916,6.824032,2000,5.5,4.0
# From MPEC 2020-AA5
A/2019 C1,e,36.0154,212.3989,319.1898,851.2221,0.0000397,0.99226852,0.0000,05/05.7373/2020,2000,g 10.0,4.0
# From MPC118842
C/2019 D1 (Flewelling),e,34.0961,231.7195,70.4879,138.7822,0.0006028,0.98863128,0.0000,05/11.8555/2019,2000,g 13.0,4.0
# From MPC119997
C/2019 E3 (ATLAS),h,11/11.6712/2023,84.2775,347.2206,280.5863,1.004917,10.316118,2000,2.5,4.0
# From MPC119997
C/2019 F1 (ATLAS-Africano),h,06/22.7706/2021,54.1742,38.7259,251.1015,1.003300,3.596428,2000,5.5,4.0
# From MPC119997
C/2019 F2 (ATLAS),e,19.1878,175.8631,10.9721,16.57709,0.0146030,0.86529663,2.4251,02/22.0/2020,2000,g 12.0,4.0
# From MPEC 2020-AA5
A/2019 G2,e,159.2116,208.1456,82.6526,719.4279,0.0000511,0.99681504,0.0000,12/10.0587/2019,2000,g 16.5,2.0
# From MPC118094
A/2019 G4,h,09/15.7327/2018,138.3822,130.4665,287.8768,1.000603,5.858718,2000,13.0,2.0
# From MPC114607
P/2019 GG21 (PANSTARRS),e,6.0839,340.6020,208.3375,7.464955,0.0483240,0.47283863,13.9146,02/22.0/2020,2000,g 12.0,4.0
# From MPC115885
C/2019 H1 (NEOWISE),e,104.5790,269.1858,19.2864,226.5535,0.0002890,0.99185642,0.0000,04/27.7349/2019,2000,g 15.5,4.0
# From MPC118842
C/2019 J1 (Lemmon),e,24.5506,98.0883,167.7760,70.26363,0.0016734,0.96472541,0.5334,02/22.0/2020,2000,g 12.0,4.0
# From MPC115885
C/2019 J2 (Palomar),e,105.1351,25.4712,98.7077,698.1284,0.0000534,0.99752628,0.0000,07/19.7259/2019,2000,g 13.0,4.0
# From MPC117071
C/2019 J3 (ATLAS),e,131.4138,270.5177,16.5473,29260,0.0000002,0.99991889,0.0000,08/01.8687/2019,2000,g 13.5,4.0
# From MPC117071
C/2019 JU6 (ATLAS),e,148.2929,21.7365,94.8692,330.1430,0.0001643,0.99380608,0.0000,05/31.8659/2019,2000,g 14.5,4.0
# From MPC119997
C/2019 K1 (ATLAS),e,87.1496,73.3750,265.7057,10364,0.0000009,0.99980581,0.0000,02/12.9611/2020,2000,g 10.0,4.0
# From MPC119997
C/2019 K4 (Ye),e,105.3036,180.1651,139.7744,2069,0.0000105,0.99890780,0.0000,06/16.4148/2019,2000,g 12.5,4.0
# From MPC119997
C/2019 K5 (Young),e,15.3147,177.1843,174.9270,153.1735,0.0005199,0.98671360,0.0000,06/22.7705/2019,2000,g 13.0,4.0
# From MPC117071
A/2019 K6,e,132.3748,42.9397,187.6057,1549,0.0000162,0.99746449,0.0000,05/20.1165/2020,2000,g 13.6,2.0
# From MPC118095
C/2019 K7 (Smith),h,06/16.8371/2020,103.5114,307.9178,27.2825,1.002155,4.474975,2000,6.2,4.0
# From MPC119997
C/2019 K8 (ATLAS),e,93.2225,291.0451,85.3616,1629,0.0000150,0.99803874,0.0000,07/21.2639/2019,2000,g 11.5,4.0
# From MPC118095
C/2019 L1 (PANSTARRS),e,9.9934,254.4077,49.9271,9.833522,0.0319625,0.70607713,6.2232,02/22.0/2020,2000,g 13.5,4.0
# From MPC115886
C/2019 L2 (NEOWISE),e,152.1827,12.5763,18.7514,24.97425,0.0078971,0.93513390,2.5749,02/22.0/2020,2000,g 16.0,4.0
# From MPC119997
C/2019 L3 (ATLAS),h,01/09.9174/2022,48.3664,290.7856,171.6722,1.000350,3.552800,2000,4.5,4.0
# From MPC118095
C/2019 LB7 (Kleyna),e,164.2353,3.3012,335.9409,35.20657,0.0047181,0.92945625,1.5650,02/22.0/2020,2000,g 17.0,4.0
# From MPC118843
P/2019 M2 (ATLAS),e,12.2818,307.6011,332.5315,3.025561,0.1872816,0.64847855,45.7591,02/22.0/2020,2000,g 21.2,4.0
# From MPC118095
C/2019 M3 (ATLAS),h,01/03.0244/2019,99.4397,154.8957,87.9424,1.002015,2.418232,2000,12.2,4.0
# From MPC119997
C/2019 N1 (ATLAS),e,82.4243,13.5779,193.4435,17612,0.0000004,0.99990321,0.0000,12/01.7933/2020,2000,g  7.5,4.0
# From MPEC 2020-AA5
A/2019 O2,e,93.2865,48.3423,129.6480,57.53515,0.0022584,0.83171025,357.4250,02/22.0/2020,2000,g  9.5,2.0
# From MPC118843
A/2019 O3,h,03/07.1707/2021,89.8139,300.3803,60.0072,1.001392,8.819316,2000,10.0,2.0
# From MPC117072
A/2019 O4,e,115.0851,354.9190,61.8054,32.88146,0.0052273,0.88916422,0.0631,02/22.0/2020,2000,g 15.5,2.0
# From MPEC 2020-AA5
A/2019 Q1,h,07/19.7246/2020,155.7203,42.3372,55.9245,1.000520,4.996743,2000,12.5,2.0
# From MPC117072
A/2019 Q2,e,159.0269,187.9798,176.2873,58.26864,0.0022159,0.97841438,0.0000,07/22.3769/2019,2000,g 18.0,2.0
# From MPC117072
C/2019 Q3 (PANSTARRS),h,08/20.9362/2018,65.5319,151.3253,152.6375,1.004610,7.250713,2000,8.5,4.0
# From MPC117072
P/2019 S2 (PANSTARRS),e,10.4732,93.1265,216.7349,4.734220,0.0956823,0.20678524,35.0399,02/22.0/2020,2000,g 13.5,4.0
# From MPC118096
P/2019 S3 (PANSTARRS),e,8.6925,150.1672,212.9635,3.413847,0.1562564,0.47073457,28.1075,02/22.0/2020,2000,g 18.3,4.0
# From MPEC 2020-AA5
A/2019 S4,e,92.0239,63.1682,71.3560,240.2147,0.0002647,0.98567262,0.0000,04/07.9458/2020,2000,g 14.5,2.0
# From MPC118843
A/2019 T1,e,120.8683,6.9490,90.9938,38.20704,0.0041734,0.88792362,358.6351,02/22.0/2020,2000,g 13.0,2.0
# From MPEC 2020-AA5
A/2019 T2,e,111.4654,155.6392,239.3944,1860,0.0000123,0.99857721,0.0000,04/22.3310/2021,2000,g 12.5,2.0
# From MPC119998
C/2019 T3 (ATLAS),e,121.8622,139.5129,112.2520,12552,0.0000007,0.99952626,0.0000,03/02.4134/2021,2000,g  6.8,4.0
# From MPC119998
C/2019 T4 (ATLAS),e,53.6165,199.9814,351.2033,1055,0.0000288,0.99597886,0.0000,06/09.3043/2022,2000,g  5.0,4.0
# From MPC119998
P/2019 T5 (ATLAS),e,33.4226,247.6965,189.6183,8.017144,0.0434185,0.80929676,8.8946,02/22.0/2020,2000,g 15.0,4.0
# From MPC119998
P/2019 T6 (PANSTARRS),e,18.6967,71.3110,328.9102,5.432842,0.0778329,0.62231094,8.2688,02/22.0/2020,2000,g 15.5,4.0
# From MPC118096
P/2019 U4 (PANSTARRS),e,11.6907,200.0372,180.9581,3.520036,0.1492394,0.47527674,23.3777,02/22.0/2020,2000,g 19.0,4.0
# From MPC118844
A/2019 U5,h,03/30.5334/2023,113.5283,2.7059,181.6214,1.000301,3.621267,2000,10.0,2.0
# From MPEC 2020-AA5
A/2019 U6,e,61.0018,235.7065,329.6576,437.8462,0.0001076,0.99791188,0.0000,06/18.8215/2020,2000,g 14.5,2.0
# From MPC119998
C/2019 V1 (Borisov),e,61.8644,83.2063,51.2005,2654,0.0000072,0.99883292,0.0000,07/16.5762/2020,2000,g 11.0,4.0
# From MPC119998
P/2019 V2 (Groeller),e,11.8020,189.1713,336.3592,7.519738,0.0477969,0.33288949,348.3383,02/22.0/2020,2000,g 10.0,4.0
# From MPC119998
P/2019 W1 (PANSTARRS),e,23.4605,35.4207,18.7385,4.550640,0.1015302,0.26609877,29.4510,02/22.0/2020,2000,g 12.9,4.0
# From MPC119998
P/2019 X1 (Pruyne),e,10.2451,43.7196,36.6439,6.177891,0.0641865,0.30339532,13.9172,02/22.0/2020,2000,g 10.4,4.0
# From MPC119999
C/2019 Y1 (ATLAS),e,73.2513,31.5194,57.9772,86.87950,0.0012171,0.99042836,0.0000,03/15.5989/2020,2000,g 13.7,4.0
# From MPC119999
P/2019 Y2 (Fuls),e,4.9020,81.0806,91.7199,3.528834,0.1486816,0.39618609,3.3277,02/22.0/2020,2000,g 13.2,4.0
# From MPEC 2020-C98
P/2019 Y3 (Catalina),e,24.6352,139.3824,2.2679,2.997872,0.1898823,0.69578222,13.3943,02/22.0/2020,2000,g 18.5,4.0
# From MPEC 2020-C98
C/2019 Y4 (ATLAS),e,45.3905,120.5779,177.3984,312.1145,0.0001787,0.99918942,0.0000,05/31.0445/2020,2000,g 12.0,4.0
# From MPEC 2020-C98
A/2019 Y5,e,82.8371,51.7761,303.4993,774.9337,0.0000457,0.99365825,0.0000,08/18.1470/2019,2000,g 14.0,2.0
# From MPEC 2020-C98
A/2020 A1,e,149.0018,119.3250,302.3672,21.87445,0.0096338,0.92377692,0.7893,02/22.0/2020,2000,g 18.0,2.0
# From MPEC 2020-C98
C/2020 A2 (Iwamoto),h,01/08.3486/2020,120.7476,286.3719,68.2355,1.000210,0.978282,2000,13.5,4.0
# From MPEC 2020-C98
C/2020 A3 (ATLAS),h,07/29.4091/2019,146.7763,120.3794,271.1526,1.024105,5.839257,2000,8.0,4.0
# From MPEC 2020-C98
A/2020 B1,e,18.5139,310.0335,154.7943,52.41886,0.0025970,0.96665738,0.1508,02/22.0/2020,2000,g 21.0,2.0
# From MPC xxxxx
C/2020 B2 (Lemmon),e,55.5295,354.4465,142.7558,60.31204,0.0021043,0.95419075,0.0619,02/22.0/2020,2000,g 14.5,4.0
# From MPC xxxxx
C/2020 B3 (Rankin),e,20.7567,185.7960,325.9240,218.8153,0.0003045,0.98466495,0.0000,10/22.8743/2019,2000,g 11.5,4.0
# From  98, 1083
1P/Halley,e,162.3152,58.1820,111.1196,17.86890,0.0130484,0.96627574,162.5110,02/22.0/2020,2000,g  4.0,6.0
# From MPC118097
2P/Encke,e,11.7648,334.5532,186.5624,2.215229,0.2989345,0.84800271,322.6794,02/22.0/2020,2000,g 11.5,6.0
# From MPEC 2015-A10
4P/Faye,e,8.0183,193.4287,206.7280,3.822851,0.1318630,0.57875630,285.5161,02/22.0/2020,2000,g  8.0,6.0
# From MPEC 2015-S97
6P/d'Arrest,e,19.5099,138.9292,178.0771,3.498488,0.1506203,0.61247469,273.5699,02/22.0/2020,2000,g  9.0,4.0
# From MPEC 2015-E14
7P/Pons-Winnecke,e,22.3646,93.3807,172.5570,3.415838,0.1561199,0.63854184,288.1743,02/22.0/2020,2000,g  9.0,4.0
# From MPC 75715
8P/Tuttle,e,54.9125,270.2070,207.4963,5.700699,0.0724122,0.81997267,319.9660,02/22.0/2020,2000,g  9.0,4.0
